{"type": "FeatureCollection", "features": [ {"type": "Feature", "properties": {"norad_id": 39122, "name": "EUTELSAT 117 WEST A", "group": "eutelsat", "lat": -0.026884095714701964, "lon": -71.07878101589924, "alt_km": 35774.88621775606, "timestamp": "2025-12-10T21:43:21.757927+00:00", "meta": {"OBJECT_NAME": "EUTELSAT 117 WEST A", "OBJECT_ID": "2013-012A", "EPOCH": "2025-12-10T08:50:38.825088", "MEAN_MOTION": 1.00270995, "ECCENTRICITY": 0.00030278, "INCLINATION": 0.0124, "RA_OF_ASC_NODE": 358.5281, "ARG_OF_PERICENTER": 263.2322, "MEAN_ANOMALY": 193.4421, "EPHEMERIS_TYPE": 0, "CLASSIFICATION_TYPE": "U", "NORAD_CAT_ID": 39122, "ELEMENT_SET_NO": 999, "REV_AT_EPOCH": 4654, "BSTAR": 0, "MEAN_MOTION_DOT": -9e-08, "MEAN_MOTION_DDOT": 0}, "tle": {"line1": "1 39122U 13012A   25344.36850492 -.00000009  00000+0  00000+0 0  9997", "line2": "2 39122   0.0124 358.5281 0003027 263.2322 193.4421  1.00270995 46546"}}, "geometry": {"type": "Point", "coordinates": [-71.07878101589924, -0.026884095714701964]}}, {"type": "Feature", "properties": {"norad_id": 39163, "name": "EUTELSAT 7B", "group": "eutelsat", "lat": 0.05913013841939193, "lon": 52.75252547132577, "alt_km": 35788.50108357242, "timestamp": "2025-12-10T21:43:21.757939+00:00", "meta": {"OBJECT_NAME": "EUTELSAT 7B", "OBJECT_ID": "2013-022A", "EPOCH": "2025-12-10T06:21:38.695680", "MEAN_MOTION": 1.00272011, "ECCENTRICITY": 0.00045881, "INCLINATION": 0.0716, "RA_OF_ASC_NODE": 16.4121, "ARG_OF_PERICENTER": 298.9676, "MEAN_ANOMALY": 226.2631, "EPHEMERIS_TYPE": 0, "CLASSIFICATION_TYPE": "U", "NORAD_CAT_ID": 39163, "ELEMENT_SET_NO": 999, "REV_AT_EPOCH": 4606, "BSTAR": 0, "MEAN_MOTION_DOT": 5.1e-07, "MEAN_MOTION_DDOT": 0}, "tle": {"line1": "1 39163U 13022A   25344.26503120  .00000051  00000+0  00000+0 0  9991", "line2": "2 39163   0.0716  16.4121 0004588 298.9676 226.2631  1.00272011 46067"}}, "geometry": {"type": "Point", "coordinates": [52.75252547132577, 0.05913013841939193]}}, {"type": "Feature", "properties": {"norad_id": 39612, "name": "EXPRESS-AT1", "group": "eutelsat", "lat": 0.013620823698344907, "lon": 101.69587555465627, "alt_km": 35786.90705389368, "timestamp": "2025-12-10T21:43:21.757951+00:00", "meta": {"OBJECT_NAME": "EXPRESS-AT1", "OBJECT_ID": "2014-010A", "EPOCH": "2025-12-10T12:40:38.892288", "MEAN_MOTION": 1.00270745, "ECCENTRICITY": 5.265e-05, "INCLINATION": 0.0127, "RA_OF_ASC_NODE": 295.3549, "ARG_OF_PERICENTER": 270.9532, "MEAN_ANOMALY": 119.3483, "EPHEMERIS_TYPE": 0, "CLASSIFICATION_TYPE": "U", "NORAD_CAT_ID": 39612, "ELEMENT_SET_NO": 999, "REV_AT_EPOCH": 4292, "BSTAR": 0, "MEAN_MOTION_DOT": 8.3e-07, "MEAN_MOTION_DDOT": 0}, "tle": {"line1": "1 39612U 14010A   25344.52822792  .00000083  00000+0  00000+0 0  9991", "line2": "2 39612   0.0127 295.3549 0000526 270.9532 119.3483  1.00270745 42923"}}, "geometry": {"type": "Point", "coordinates": [101.69587555465627, 0.013620823698344907]}}, {"type": "Feature", "properties": {"norad_id": 39613, "name": "EXPRESS-AT2", "group": "eutelsat", "lat": -0.015048596431292444, "lon": -174.44570756579665, "alt_km": 35788.863474457896, "timestamp": "2025-12-10T21:43:21.757963+00:00", "meta": {"OBJECT_NAME": "EXPRESS-AT2", "OBJECT_ID": "2014-010B", "EPOCH": "2025-12-10T12:49:38.623584", "MEAN_MOTION": 1.00269643, "ECCENTRICITY": 0.00015253, "INCLINATION": 0.0161, "RA_OF_ASC_NODE": 340.0718, "ARG_OF_PERICENTER": 315.08, "MEAN_ANOMALY": 116.6304, "EPHEMERIS_TYPE": 0, "CLASSIFICATION_TYPE": "U", "NORAD_CAT_ID": 39613, "ELEMENT_SET_NO": 999, "REV_AT_EPOCH": 4260, "BSTAR": 0, "MEAN_MOTION_DOT": 0, "MEAN_MOTION_DDOT": 0}, "tle": {"line1": "1 39613U 14010B   25344.53447481  .00000000  00000+0  00000+0 0  9990", "line2": "2 39613   0.0161 340.0718 0001525 315.0800 116.6304  1.00269643 42609"}}, "geometry": {"type": "Point", "coordinates": [-174.44570756579665, -0.015048596431292444]}}, {"type": "Feature", "properties": {"norad_id": 39773, "name": "EUTELSAT 3B", "group": "eutelsat", "lat": 0.07393361915374179, "lon": 48.81843158133054, "alt_km": 35805.859624622586, "timestamp": "2025-12-10T21:43:21.757975+00:00", "meta": {"OBJECT_NAME": "EUTELSAT 3B", "OBJECT_ID": "2014-030A", "EPOCH": "2025-12-10T06:29:38.861952", "MEAN_MOTION": 1.00271741, "ECCENTRICITY": 0.00046891, "INCLINATION": 0.0626, "RA_OF_ASC_NODE": 343.8632, "ARG_OF_PERICENTER": 244.6896, "MEAN_ANOMALY": 311.215, "EPHEMERIS_TYPE": 0, "CLASSIFICATION_TYPE": "U", "NORAD_CAT_ID": 39773, "ELEMENT_SET_NO": 999, "REV_AT_EPOCH": 4217, "BSTAR": 0, "MEAN_MOTION_DOT": 2.3e-07, "MEAN_MOTION_DDOT": 0}, "tle": {"line1": "1 39773U 14030A   25344.27058868  .00000023  00000+0  00000+0 0  9992", "line2": "2 39773   0.0626 343.8632 0004689 244.6896 311.2150  1.00271741 42170"}}, "geometry": {"type": "Point", "coordinates": [48.81843158133054, 0.07393361915374179]}}, {"type": "Feature", "properties": {"norad_id": 40425, "name": "EUTELSAT 115 WEST B", "group": "eutelsat", "lat": 0.005514860495995405, "lon": -69.19521418762501, "alt_km": 35787.468159337324, "timestamp": "2025-12-10T21:43:21.757987+00:00", "meta": {"OBJECT_NAME": "EUTELSAT 115 WEST B", "OBJECT_ID": "2015-010B", "EPOCH": "2025-12-10T13:37:30.262368", "MEAN_MOTION": 1.00270169, "ECCENTRICITY": 2.488e-05, "INCLINATION": 0.0096, "RA_OF_ASC_NODE": 142.1044, "ARG_OF_PERICENTER": 302.6393, "MEAN_ANOMALY": 84.2706, "EPHEMERIS_TYPE": 0, "CLASSIFICATION_TYPE": "U", "NORAD_CAT_ID": 40425, "ELEMENT_SET_NO": 999, "REV_AT_EPOCH": 3950, "BSTAR": 0, "MEAN_MOTION_DOT": -2.1e-07, "MEAN_MOTION_DDOT": 0}, "tle": {"line1": "1 40425U 15010B   25344.56771137 -.00000021  00000+0  00000+0 0  9999", "line2": "2 40425   0.0096 142.1044 0000248 302.6393  84.2706  1.00270169 39508"}}, "geometry": {"type": "Point", "coordinates": [-69.19521418762501, 0.005514860495995405]}}, {"type": "Feature", "properties": {"norad_id": 40875, "name": "EUTELSAT 8 WEST B", "group": "eutelsat", "lat": 0.05233965669838205, "lon": 37.75879436757014, "alt_km": 35799.14350829469, "timestamp": "2025-12-10T21:43:21.757999+00:00", "meta": {"OBJECT_NAME": "EUTELSAT 8 WEST B", "OBJECT_ID": "2015-039B", "EPOCH": "2025-12-10T06:37:26.586624", "MEAN_MOTION": 1.00271535, "ECCENTRICITY": 0.00041753, "INCLINATION": 0.0648, "RA_OF_ASC_NODE": 2.5239, "ARG_OF_PERICENTER": 257.8515, "MEAN_ANOMALY": 270.2548, "EPHEMERIS_TYPE": 0, "CLASSIFICATION_TYPE": "U", "NORAD_CAT_ID": 40875, "ELEMENT_SET_NO": 999, "REV_AT_EPOCH": 3776, "BSTAR": 0, "MEAN_MOTION_DOT": -6.2e-07, "MEAN_MOTION_DDOT": 0}, "tle": {"line1": "1 40875U 15039B   25344.27600216 -.00000062  00000+0  00000+0 0  9991", "line2": "2 40875   0.0648   2.5239 0004175 257.8515 270.2548  1.00271535 37760"}}, "geometry": {"type": "Point", "coordinates": [37.75879436757014, 0.05233965669838205]}}, {"type": "Feature", "properties": {"norad_id": 41310, "name": "EUTELSAT 9B", "group": "eutelsat", "lat": 0.014046966534382603, "lon": 54.757479036271846, "alt_km": 35803.40889679109, "timestamp": "2025-12-10T21:43:21.758011+00:00", "meta": {"OBJECT_NAME": "EUTELSAT 9B", "OBJECT_ID": "2016-005A", "EPOCH": "2025-12-10T06:21:38.695680", "MEAN_MOTION": 1.00272631, "ECCENTRICITY": 0.00048393, "INCLINATION": 0.0388, "RA_OF_ASC_NODE": 57.1944, "ARG_OF_PERICENTER": 208.2666, "MEAN_ANOMALY": 278.2089, "EPHEMERIS_TYPE": 0, "CLASSIFICATION_TYPE": "U", "NORAD_CAT_ID": 41310, "ELEMENT_SET_NO": 999, "REV_AT_EPOCH": 3622, "BSTAR": 0, "MEAN_MOTION_DOT": 6.5e-07, "MEAN_MOTION_DDOT": 0}, "tle": {"line1": "1 41310U 16005A   25344.26503120  .00000065  00000+0  00000+0 0  9997", "line2": "2 41310   0.0388  57.1944 0004839 208.2666 278.2089  1.00272631 36225"}}, "geometry": {"type": "Point", "coordinates": [54.757479036271846, 0.014046966534382603]}}, {"type": "Feature", "properties": {"norad_id": 41382, "name": "EUTELSAT 65 WEST A", "group": "eutelsat", "lat": -0.023802940148157634, "lon": -19.46159995104657, "alt_km": 35783.06170800771, "timestamp": "2025-12-10T21:43:21.758038+00:00", "meta": {"OBJECT_NAME": "EUTELSAT 65 WEST A", "OBJECT_ID": "2016-014A", "EPOCH": "2025-12-10T04:07:38.715168", "MEAN_MOTION": 1.00272579, "ECCENTRICITY": 0.00026195, "INCLINATION": 0.0501, "RA_OF_ASC_NODE": 7.2682, "ARG_OF_PERICENTER": 258.3578, "MEAN_ANOMALY": 170.2329, "EPHEMERIS_TYPE": 0, "CLASSIFICATION_TYPE": "U", "NORAD_CAT_ID": 41382, "ELEMENT_SET_NO": 999, "REV_AT_EPOCH": 3564, "BSTAR": 0, "MEAN_MOTION_DOT": -2.73e-06, "MEAN_MOTION_DDOT": 0}, "tle": {"line1": "1 41382U 16014A   25344.17197587 -.00000273  00000+0  00000+0 0  9994", "line2": "2 41382   0.0501   7.2682 0002619 258.3578 170.2329  1.00272579 35642"}}, "geometry": {"type": "Point", "coordinates": [-19.46159995104657, -0.023802940148157634]}}, {"type": "Feature", "properties": {"norad_id": 41589, "name": "EUTELSAT 117 WEST B", "group": "eutelsat", "lat": 0.005693577158018301, "lon": -71.27653535640034, "alt_km": 35787.00798312384, "timestamp": "2025-12-10T21:43:21.758054+00:00", "meta": {"OBJECT_NAME": "EUTELSAT 117 WEST B", "OBJECT_ID": "2016-038B", "EPOCH": "2025-12-10T08:50:38.825088", "MEAN_MOTION": 1.00272599, "ECCENTRICITY": 3.07e-05, "INCLINATION": 0.0104, "RA_OF_ASC_NODE": 149.7768, "ARG_OF_PERICENTER": 293.6886, "MEAN_ANOMALY": 11.5535, "EPHEMERIS_TYPE": 0, "CLASSIFICATION_TYPE": "U", "NORAD_CAT_ID": 41589, "ELEMENT_SET_NO": 999, "REV_AT_EPOCH": 3477, "BSTAR": 0, "MEAN_MOTION_DOT": -8e-08, "MEAN_MOTION_DDOT": 0}, "tle": {"line1": "1 41589U 16038B   25344.36850492 -.00000008  00000+0  00000+0 0  9997", "line2": "2 41589   0.0104 149.7768 0000307 293.6886  11.5535  1.00272599 34774"}}, "geometry": {"type": "Point", "coordinates": [-71.27653535640034, 0.005693577158018301]}}]}